{"type": "FeatureCollection", "features": [ {"type": "Feature", "properties": {"norad_id": 33799, "name": "COSMOS 2251 DEB", "group": "cosmos-2251-debris", "lat": -69.42448111878508, "lon": -75.16681068158513, "alt_km": 647.9102985182753, "timestamp": "2025-12-26T06:43:29.904365+00:00", "meta": {"OBJECT_NAME": "COSMOS 2251 DEB", "OBJECT_ID": "1993-036AQ", "EPOCH": "2025-12-25T05:29:12.926112", "MEAN_MOTION": 14.79807515, "ECCENTRICITY": 0.0022135, "INCLINATION": 74.0314, "RA_OF_ASC_NODE": 57.1921, "ARG_OF_PERICENTER": 123.2586, "MEAN_ANOMALY": 293.5848, "EPHEMERIS_TYPE": 0, "CLASSIFICATION_TYPE": "U", "NORAD_CAT_ID": 33799, "ELEMENT_SET_NO": 999, "REV_AT_EPOCH": 88996, "BSTAR": 0.0013645, "MEAN_MOTION_DOT": 0.000103, "MEAN_MOTION_DDOT": 0}, "tle": {"line1": "1 33799U 93036AQ  25359.22862183  .00010300  00000+0  13645-2 0  9992", "line2": "2 33799  74.0314  57.1921 0022135 123.2586 293.5848 14.79807515889963"}}, "geometry": {"type": "Point", "coordinates": [-75.16681068158513, -69.42448111878508]}}, {"type": "Feature", "properties": {"norad_id": 33805, "name": "COSMOS 2251 DEB", "group": "cosmos-2251-debris", "lat": 44.91214249693821, "lon": -57.8408020898819, "alt_km": 676.5516012231246, "timestamp": "2025-12-26T06:43:29.904376+00:00", "meta": {"OBJECT_NAME": "COSMOS 2251 DEB", "OBJECT_ID": "1993-036AW", "EPOCH": "2025-12-25T18:58:51.021984", "MEAN_MOTION": 14.57884159, "ECCENTRICITY": 0.00598903, "INCLINATION": 74.0313, "RA_OF_ASC_NODE": 286.503, "ARG_OF_PERICENTER": 111.6609, "MEAN_ANOMALY": 249.0949, "EPHEMERIS_TYPE": 0, "CLASSIFICATION_TYPE": "U", "NORAD_CAT_ID": 33805, "ELEMENT_SET_NO": 999, "REV_AT_EPOCH": 89417, "BSTAR": 0.00025079963, "MEAN_MOTION_DOT": 1.148e-05, "MEAN_MOTION_DDOT": 0}, "tle": {"line1": "1 33805U 93036AW  25359.79086831  .00001148  00000+0  25080-3 0  9997", "line2": "2 33805  74.0313 286.5030 0059890 111.6609 249.0949 14.57884159894176"}}, "geometry": {"type": "Point", "coordinates": [-57.8408020898819, 44.91214249693821]}}, {"type": "Feature", "properties": {"norad_id": 33811, "name": "COSMOS 2251 DEB", "group": "cosmos-2251-debris", "lat": 67.7896223563546, "lon": -40.17579112595474, "alt_km": 539.351741758449, "timestamp": "2025-12-26T06:43:29.904390+00:00", "meta": {"OBJECT_NAME": "COSMOS 2251 DEB", "OBJECT_ID": "1993-036BC", "EPOCH": "2025-12-25T21:06:40.199616", "MEAN_MOTION": 15.05656727, "ECCENTRICITY": 0.00309872, "INCLINATION": 73.8379, "RA_OF_ASC_NODE": 275.3975, "ARG_OF_PERICENTER": 353.7396, "MEAN_ANOMALY": 70.1491, "EPHEMERIS_TYPE": 0, "CLASSIFICATION_TYPE": "U", "NORAD_CAT_ID": 33811, "ELEMENT_SET_NO": 999, "REV_AT_EPOCH": 90216, "BSTAR": 0.0011136153, "MEAN_MOTION_DOT": 0.00016254, "MEAN_MOTION_DDOT": 0}, "tle": {"line1": "1 33811U 93036BC  25359.87963194  .00016254  00000+0  11136-2 0  9999", "line2": "2 33811  73.8379 275.3975 0030987 353.7396  70.1491 15.05656727902160"}}, "geometry": {"type": "Point", "coordinates": [-40.17579112595474, 67.7896223563546]}}, {"type": "Feature", "properties": {"norad_id": 33815, "name": "COSMOS 2251 DEB", "group": "cosmos-2251-debris", "lat": 54.06235877738365, "lon": -55.33388493397161, "alt_km": 497.05683280017, "timestamp": "2025-12-26T06:43:29.904402+00:00", "meta": {"OBJECT_NAME": "COSMOS 2251 DEB", "OBJECT_ID": "1993-036BG", "EPOCH": "2025-12-25T19:41:06.838656", "MEAN_MOTION": 15.21778143, "ECCENTRICITY": 0.00040974, "INCLINATION": 73.9516, "RA_OF_ASC_NODE": 149.0355, "ARG_OF_PERICENTER": 331.2535, "MEAN_ANOMALY": 152.2053, "EPHEMERIS_TYPE": 0, "CLASSIFICATION_TYPE": "U", "NORAD_CAT_ID": 33815, "ELEMENT_SET_NO": 999, "REV_AT_EPOCH": 88569, "BSTAR": 0.007771607, "MEAN_MOTION_DOT": 0.00180807, "MEAN_MOTION_DDOT": 0}, "tle": {"line1": "1 33815U 93036BG  25359.82021804  .00180807  00000+0  77716-2 0  9993", "line2": "2 33815  73.9516 149.0355 0004097 331.2535 152.2053 15.21778143885695"}}, "geometry": {"type": "Point", "coordinates": [-55.33388493397161, 54.06235877738365]}}, {"type": "Feature", "properties": {"norad_id": 33816, "name": "COSMOS 2251 DEB", "group": "cosmos-2251-debris", "lat": 70.39521965713371, "lon": -151.7579885236551, "alt_km": 758.6317634481302, "timestamp": "2025-12-26T06:43:29.904412+00:00", "meta": {"OBJECT_NAME": "COSMOS 2251 DEB", "OBJECT_ID": "1993-036BH", "EPOCH": "2025-12-25T14:36:56.196000", "MEAN_MOTION": 13.81797239, "ECCENTRICITY": 0.0264117, "INCLINATION": 73.8953, "RA_OF_ASC_NODE": 83.5844, "ARG_OF_PERICENTER": 93.9633, "MEAN_ANOMALY": 269.1724, "EPHEMERIS_TYPE": 0, "CLASSIFICATION_TYPE": "U", "NORAD_CAT_ID": 33816, "ELEMENT_SET_NO": 999, "REV_AT_EPOCH": 84851, "BSTAR": 0.00036192, "MEAN_MOTION_DOT": 4.84e-06, "MEAN_MOTION_DDOT": 0}, "tle": {"line1": "1 33816U 93036BH  25359.60898375  .00000484  00000+0  36192-3 0  9991", "line2": "2 33816  73.8953  83.5844 0264117  93.9633 269.1724 13.81797239848511"}}, "geometry": {"type": "Point", "coordinates": [-151.7579885236551, 70.39521965713371]}}, {"type": "Feature", "properties": {"norad_id": 33818, "name": "COSMOS 2251 DEB", "group": "cosmos-2251-debris", "lat": 36.485403767653736, "lon": 150.4211707179131, "alt_km": 519.8920925573848, "timestamp": "2025-12-26T06:43:29.904423+00:00", "meta": {"OBJECT_NAME": "COSMOS 2251 DEB", "OBJECT_ID": "1993-036BK", "EPOCH": "2025-12-25T19:57:28.798848", "MEAN_MOTION": 15.1359448, "ECCENTRICITY": 0.00239193, "INCLINATION": 74.08, "RA_OF_ASC_NODE": 139.1628, "ARG_OF_PERICENTER": 121.2453, "MEAN_ANOMALY": 353.8108, "EPHEMERIS_TYPE": 0, "CLASSIFICATION_TYPE": "U", "NORAD_CAT_ID": 33818, "ELEMENT_SET_NO": 999, "REV_AT_EPOCH": 90060, "BSTAR": 0.0025293777, "MEAN_MOTION_DOT": 0.00045981, "MEAN_MOTION_DDOT": 0}, "tle": {"line1": "1 33818U 93036BK  25359.83158332  .00045981  00000+0  25294-2 0  9991", "line2": "2 33818  74.0800 139.1628 0023919 121.2453 353.8108 15.13594480900609"}}, "geometry": {"type": "Point", "coordinates": [150.4211707179131, 36.485403767653736]}}, {"type": "Feature", "properties": {"norad_id": 33819, "name": "COSMOS 2251 DEB", "group": "cosmos-2251-debris", "lat": -8.4867242621273, "lon": 7.778073997938134, "alt_km": 840.9044131391411, "timestamp": "2025-12-26T06:43:29.904433+00:00", "meta": {"OBJECT_NAME": "COSMOS 2251 DEB", "OBJECT_ID": "1993-036BL", "EPOCH": "2025-12-25T23:51:31.002912", "MEAN_MOTION": 14.32263602, "ECCENTRICITY": 0.00895647, "INCLINATION": 74.1772, "RA_OF_ASC_NODE": 185.8703, "ARG_OF_PERICENTER": 43.1942, "MEAN_ANOMALY": 110.3702, "EPHEMERIS_TYPE": 0, "CLASSIFICATION_TYPE": "U", "NORAD_CAT_ID": 33819, "ELEMENT_SET_NO": 999, "REV_AT_EPOCH": 87685, "BSTAR": 0.00049369612, "MEAN_MOTION_DOT": 1.368e-05, "MEAN_MOTION_DDOT": 0}, "tle": {"line1": "1 33819U 93036BL  25359.99410883  .00001368  00000+0  49370-3 0  9994", "line2": "2 33819  74.1772 185.8703 0089564  43.1942 110.3702 14.32263602876858"}}, "geometry": {"type": "Point", "coordinates": [7.778073997938134, -8.4867242621273]}}, {"type": "Feature", "properties": {"norad_id": 33821, "name": "COSMOS 2251 DEB", "group": "cosmos-2251-debris", "lat": 72.20316576161085, "lon": -128.94521505432195, "alt_km": 456.06795350074935, "timestamp": "2025-12-26T06:43:29.904444+00:00", "meta": {"OBJECT_NAME": "COSMOS 2251 DEB", "OBJECT_ID": "1993-036BN", "EPOCH": "2025-12-25T17:42:39.732768", "MEAN_MOTION": 15.26124153, "ECCENTRICITY": 0.00492072, "INCLINATION": 74.0304, "RA_OF_ASC_NODE": 115.3421, "ARG_OF_PERICENTER": 144.3088, "MEAN_ANOMALY": 216.142, "EPHEMERIS_TYPE": 0, "CLASSIFICATION_TYPE": "U", "NORAD_CAT_ID": 33821, "ELEMENT_SET_NO": 999, "REV_AT_EPOCH": 75199, "BSTAR": 0.0012899322, "MEAN_MOTION_DOT": 0.00034606, "MEAN_MOTION_DDOT": 0}, "tle": {"line1": "1 33821U 93036BN  25359.73795987  .00034606  00000+0  12899-2 0  9996", "line2": "2 33821  74.0304 115.3421 0049207 144.3088 216.1420 15.26124153751991"}}, "geometry": {"type": "Point", "coordinates": [-128.94521505432195, 72.20316576161085]}}, {"type": "Feature", "properties": {"norad_id": 33822, "name": "COSMOS 2251 DEB", "group": "cosmos-2251-debris", "lat": 17.69960913339813, "lon": -15.453433350291528, "alt_km": 778.880099852171, "timestamp": "2025-12-26T06:43:29.904455+00:00", "meta": {"OBJECT_NAME": "COSMOS 2251 DEB", "OBJECT_ID": "1993-036BP", "EPOCH": "2025-12-25T13:16:47.544384", "MEAN_MOTION": 14.13138003, "ECCENTRICITY": 0.0152596, "INCLINATION": 74.0681, "RA_OF_ASC_NODE": 171.0597, "ARG_OF_PERICENTER": 214.3479, "MEAN_ANOMALY": 212.0747, "EPHEMERIS_TYPE": 0, "CLASSIFICATION_TYPE": "U", "NORAD_CAT_ID": 33822, "ELEMENT_SET_NO": 999, "REV_AT_EPOCH": 86235, "BSTAR": 0.0016849, "MEAN_MOTION_DOT": 3.495e-05, "MEAN_MOTION_DDOT": 0}, "tle": {"line1": "1 33822U 93036BP  25359.55332806  .00003495  00000+0  16849-2 0  9995", "line2": "2 33822  74.0681 171.0597 0152596 214.3479 212.0747 14.13138003862355"}}, "geometry": {"type": "Point", "coordinates": [-15.453433350291528, 17.69960913339813]}}, {"type": "Feature", "properties": {"norad_id": 33823, "name": "COSMOS 2251 DEB", "group": "cosmos-2251-debris", "lat": 17.939828030681372, "lon": 130.9967277583133, "alt_km": 993.8004335561864, "timestamp": "2025-12-26T06:43:29.904465+00:00", "meta": {"OBJECT_NAME": "COSMOS 2251 DEB", "OBJECT_ID": "1993-036BQ", "EPOCH": "2025-12-25T19:12:26.186112", "MEAN_MOTION": 13.98984467, "ECCENTRICITY": 0.02094899, "INCLINATION": 73.81, "RA_OF_ASC_NODE": 126.4404, "ARG_OF_PERICENTER": 249.5213, "MEAN_ANOMALY": 231.3986, "EPHEMERIS_TYPE": 0, "CLASSIFICATION_TYPE": "U", "NORAD_CAT_ID": 33823, "ELEMENT_SET_NO": 999, "REV_AT_EPOCH": 85792, "BSTAR": 0.00090896206, "MEAN_MOTION_DOT": 1.558e-05, "MEAN_MOTION_DDOT": 0}, "tle": {"line1": "1 33823U 93036BQ  25359.80030308  .00001558  00000+0  90896-3 0  9999", "line2": "2 33823  73.8100 126.4404 0209489 249.5213 231.3986 13.98984467857921"}}, "geometry": {"type": "Point", "coordinates": [130.9967277583133, 17.939828030681372]}}]}